NORAD_CAT_ID,OBJECT_NAME,OBJECT_TYPE,EPOCH,MEAN_MOTION,ECCENTRICITY,INCLINATION,RA_OF_ASC_NODE,ARG_OF_PERICENTER,MEAN_ANOMALY,BSTAR,MEAN_MOTION_DOT,MEAN_MOTION_DDOT,TLE_LINE0,TLE_LINE1,TLE_LINE2,SEMIMAJOR_AXIS,PERIOD,APOGEE,PERIGEE,DECAYED
52535.0,STARLINK-3958,PAYLOAD,2023-01-16 21:39:03,15.08830164,0.0001416,53.2111,241.7461,88.8796,271.2359,-4.7864e-05,-1.049e-05,0.0,0 STARLINK-3958,1 52535U 22051C   23016.90212877 -.00001049  00000-0 -47864-4 0  9997,2 52535  53.2111 241.7461 0001416  88.8796 271.2359 15.08830164 38239,6917.91,95.438,540.755,538.7959999999999,0.0
52535.0,STARLINK-3958,PAYLOAD,2023-01-18 07:02:10,15.08844367,0.0001294,53.2121,235.4996,91.7001,268.4139,0.00038378,5.826e-05,0.0,0 STARLINK-3958,1 52535U 22051C   23018.29317194  .00005826  00000-0  38378-3 0  9993,2 52535  53.2121 235.4996 0001294  91.7001 268.4139 15.08844367 38446,6917.866999999999,95.437,540.627,538.837,0.0
52535.0,STARLINK-3958,PAYLOAD,2023-01-18 13:23:42,15.08844957,0.0001281,53.2113,234.3112,93.5729,266.5409,0.00036078,5.459e-05,0.0,0 STARLINK-3958,1 52535U 22051C   23018.55813196  .00005459  00000-0  36078-3 0  9992,2 52535  53.2113 234.3112 0001281  93.5729 266.5409 15.08844957 38419,6917.865,95.437,540.616,538.844,0.0
52535.0,STARLINK-3958,PAYLOAD,2023-01-18 21:20:37,15.0885407,0.0001255,53.2114,232.8242,94.3114,265.8021,0.00047884,7.344e-05,0.0,0 STARLINK-3958,1 52535U 22051C   23018.88932823  .00007344  00000-0  47884-3 0  9999,2 52535  53.2114 232.8242 0001255  94.3114 265.8021 15.08854070 38469,6917.837,95.437,540.571,538.8340000000001,0.0
52535.0,STARLINK-3958,PAYLOAD,2023-01-19 08:28:19,15.0884583,0.0001351,53.211000000000006,230.7429,93.2091,266.9055,0.00015914,2.246e-05,0.0,0 STARLINK-3958,1 52535U 22051C   23019.35300853  .00002246  00000-0  15914-3 0  9999,2 52535  53.2110 230.7429 0001351  93.2091 266.9055 15.08845830 38607,6917.863,95.437,540.6619999999999,538.793,0.0
52535.0,STARLINK-3958,PAYLOAD,2023-01-19 16:25:16,15.08833014,0.0001233,53.2109,229.2554,91.9374,268.1759,-0.00012079,-2.209e-05,0.0,0 STARLINK-3958,1 52535U 22051C   23019.68421308 -.00002209  00000-0 -12079-3 0  9994,2 52535  53.2109 229.2554 0001233  91.9374 268.1759 15.08833014 38656,6917.901999999999,95.438,540.62,538.914,0.0
52535.0,STARLINK-3958,PAYLOAD,2023-01-20 06:43:44,15.08840257,0.0001167,53.2108,226.5789,91.852,268.2606,0.00018439,2.648e-05,0.0,0 STARLINK-3958,1 52535U 22051C   23020.28037348  .00002648  00000-0  18439-3 0  9990,2 52535  53.2108 226.5789 0001167  91.8520 268.2606 15.08840257 38674,6917.88,95.438,540.552,538.937,0.0
52535.0,STARLINK-3958,PAYLOAD,2023-01-20 22:37:35,15.0885228,0.0001127,53.2105,223.6053,89.258,270.8542,0.00079644,0.00012414,0.0,0 STARLINK-3958,1 52535U 22051C   23020.94277294  .00012414  00000-0  79644-3 0  9996,2 52535  53.2105 223.6053 0001127  89.2580 270.8542 15.08852280 38842,6917.843000000001,95.437,540.487,538.928,0.0
52535.0,STARLINK-3958,PAYLOAD,2023-01-21 06:34:31,15.08847316,0.0001235,53.2113,222.1167,84.616,275.4973,0.00038828,5.898e-05,0.0,0 STARLINK-3958,1 52535U 22051C   23021.27397301  .00005898  00000-0  38828-3 0  9992,2 52535  53.2113 222.1167 0001235  84.6160 275.4973 15.08847316 38892,6917.858,95.437,540.577,538.869,0.0
52535.0,STARLINK-3958,PAYLOAD,2023-01-22 06:25:18,15.08847923,0.0001262,53.2113,217.657,80.5385,279.575,0.00023283,3.4200000000000005e-05,0.0,0 STARLINK-3958,1 52535U 22051C   23022.26757076  .00003420  00000-0  23283-3 0  9999,2 52535  53.2113 217.6570 0001262  80.5385 279.5750 15.08847923 39043,6917.856,95.437,540.594,538.8480000000001,0.0
52535.0,STARLINK-3958,PAYLOAD,2023-01-22 19:08:23,15.08840598,0.0001182,53.212,215.278,80.8556,279.257,4.7313e-05,4.65e-06,0.0,0 STARLINK-3958,1 52535U 22051C   23022.79749253  .00000465  00000-0  47313-4 0  9992,2 52535  53.2120 215.2780 0001182  80.8556 279.2570 15.08840598 39129,6917.879,95.438,540.561,538.9259999999999,0.0
52535.0,STARLINK-3958,PAYLOAD,2023-01-24 09:17:38,15.08837519,0.0001188,53.2144,208.1403,87.728,272.3848,9.1949e-05,1.176e-05,0.0,0 STARLINK-3958,1 52535U 22051C   23024.38725335  .00001176  00000-0  91949-4 0  9998,2 52535  53.2144 208.1403 0001188  87.7280 272.3848 15.08837519 39361,6917.888000000001,95.438,540.575,538.931,0.0
52535.0,STARLINK-3958,PAYLOAD,2023-01-25 07:33:02,15.08835134,0.0001183,53.2145,203.9771,90.0129,270.0998,4.3972e-05,4.12e-06,0.0,0 STARLINK-3958,1 52535U 22051C   23025.31461642  .00000412  00000-0  43972-4 0  9995,2 52535  53.2145 203.9771 0001183  90.0129 270.0998 15.08835134 39437,6917.895,95.438,540.5790000000001,538.942,0.0
52535.0,STARLINK-3958,PAYLOAD,2023-01-25 15:29:58,15.08835362,0.0001169,53.2146,202.4902,88.10600000000001,272.0066,6.531399999999999e-05,7.52e-06,0.0,0 STARLINK-3958,1 52535U 22051C   23025.64581658  .00000752  00000-0  65314-4 0  9992,2 52535  53.2146 202.4902 0001169  88.1060 272.0066 15.08835362 39558,6917.895,95.438,540.568,538.951,0.0
52535.0,STARLINK-3958,PAYLOAD,2023-01-25 17:05:21,15.08835943,0.0001173,53.2146,202.1928,88.2375,271.8752,5.7892e-05,6.34e-06,0.0,0 STARLINK-3958,1 52535U 22051C   23025.71205640  .00000634  00000-0  57892-4 0  9995,2 52535  53.2146 202.1928 0001173  88.2375 271.8752 15.08835943 39495,6917.893,95.438,540.569,538.946,0.0
52535.0,STARLINK-3958,PAYLOAD,2023-01-26 04:13:03,15.08838493,0.0001137999999999,53.2145,200.1109,86.709,273.4033,5.2369e-05,5.46e-06,0.0,0 STARLINK-3958,1 52535U 22051C   23026.17573506  .00000546  00000-0  52369-4 0  9991,2 52535  53.2145 200.1109 0001138  86.7090 273.4033 15.08838493 39562,6917.885,95.438,540.5369999999999,538.9630000000001,0.0
52535.0,STARLINK-3958,PAYLOAD,2023-01-26 20:06:54,15.0883966,0.0001131,53.2146,197.1372,87.6351,272.4771,7.1175e-05,8.45e-06,0.0,0 STARLINK-3958,1 52535U 22051C   23026.83813462  .00000845  00000-0  71175-4 0  9990,2 52535  53.2146 197.1372 0001131  87.6351 272.4771 15.08839660 39737,6917.880999999999,95.438,540.529,538.964,0.0
52535.0,STARLINK-3958,PAYLOAD,2023-01-27 13:36:10,15.08830215,0.0001203,53.2147,193.8656,90.6973,269.4157,2.0896e-05,4.5e-07,0.0,0 STARLINK-3958,1 52535U 22051C   23027.56678438  .00000045  00000-0  20896-4 0  9999,2 52535  53.2147 193.8656 0001203  90.6973 269.4157 15.08830215 39843,6917.91,95.438,540.6080000000001,538.943,0.0
52535.0,STARLINK-3958,PAYLOAD,2023-01-27 18:22:19,15.08833381,0.0001139999999999,53.2147,192.9737,89.6409,270.4714,3.7309e-05,3.06e-06,0.0,0 STARLINK-3958,1 52535U 22051C   23027.76550247  .00000306  00000-0  37309-4 0  9995,2 52535  53.2147 192.9737 0001140  89.6409 270.4714 15.08833381 39809,6917.901,95.438,540.554,538.977,0.0
52535.0,STARLINK-3958,PAYLOAD,2023-01-28 05:30:01,15.08839056,0.0001199,53.2147,190.8921,87.8281,272.2848,6.3166e-05,7.18e-06,0.0,0 STARLINK-3958,1 52535U 22051C   23028.22917866  .00000718  00000-0  63166-4 0  9998,2 52535  53.2147 190.8921 0001199  87.8281 272.2848 15.08839056 39941,6917.883000000001,95.438,540.578,538.919,0.0
52535.0,STARLINK-3958,PAYLOAD,2023-01-28 18:13:05,15.08847073,0.0001188,53.2148,188.5131,86.7654,273.3474,0.00011198,1.495e-05,0.0,0 STARLINK-3958,1 52535U 22051C   23028.75909170  .00001495  00000-0  11198-3 0  9995,2 52535  53.2148 188.5131 0001188  86.7654 273.3474 15.08847073 40025,6917.859,95.437,540.546,538.902,0.0
52535.0,STARLINK-3958,PAYLOAD,2023-01-29 05:20:48,15.08837114,0.0001281,53.2146,186.4323,77.4147,282.6988,7.623e-05,9.25e-06,0.0,0 STARLINK-3958,1 52535U 22051C   23029.22277924  .00000925  00000-0  76230-4 0  9999,2 52535  53.2146 186.4323 0001281  77.4147 282.6988 15.08837114 40096,6917.889,95.438,540.64,538.868,0.0
52535.0,STARLINK-3958,PAYLOAD,2023-01-29 16:28:30,15.08833242,0.0001216,53.2149,184.3503,79.7483,280.3646,3.4681e-05,2.64e-06,0.0,0 STARLINK-3958,1 52535U 22051C   23029.68646410  .00000264  00000-0  34681-4 0  9999,2 52535  53.2149 184.3503 0001216  79.7483 280.3646 15.08833242 40096,6917.901,95.438,540.607,538.925,0.0
52535.0,STARLINK-3958,PAYLOAD,2023-01-30 13:08:30,15.08841404,0.0001244,53.215,180.4842,81.5948,278.5185,-3.6423e-06,-3.46e-06,0.0,0 STARLINK-3958,1 52535U 22051C   23030.54757994 -.00000346  00000-0 -36423-5 0  9996,2 52535  53.2150 180.4842 0001244  81.5948 278.5185 15.08841404 40297,6917.876,95.437,540.602,538.881,0.0
52535.0,STARLINK-3958,PAYLOAD,2023-01-31 12:59:17,15.0883876,0.0001241,53.2151,176.0238,76.1994,283.9136,7.9165e-05,9.72e-06,0.0,0 STARLINK-3958,1 52535U 22051C   23031.54117783  .00000972  00000-0  79165-4 0  9995,2 52535  53.2151 176.0238 0001241  76.1994 283.9136 15.08838760 40372,6917.884,95.438,540.608,538.891,0.0
52535.0,STARLINK-3958,PAYLOAD,2023-01-31 19:20:49,15.08843985,0.0001198,53.2151,174.8339,81.6575,278.4553,8.8896e-05,1.127e-05,0.0,0 STARLINK-3958,1 52535U 22051C   23031.80613362  .00001127  00000-0  88896-4 0  9992,2 52535  53.2151 174.8339 0001198  81.6575 278.4553 15.08843985 40486,6917.868,95.437,540.562,538.904,0.0
52535.0,STARLINK-3958,PAYLOAD,2023-02-01 09:39:18,15.08840369,0.0001587,53.2154,172.1536,100.1435,259.9736,6.8963e-06,-1.78e-06,0.0,0 STARLINK-3958,1 52535U 22051C   23032.40229878 -.00000178  00000-0  68963-5 0  9994,2 52535  53.2154 172.1536 0001587 100.1435 259.9736 15.08840369 40573,6917.879,95.438,540.842,538.646,0.0
52535.0,STARLINK-3958,PAYLOAD,2023-02-01 12:50:04,15.08839592,0.0001431,53.2151,171.5598,105.6708,254.4442,5.2872e-06,-2.04e-06,0.0,0 STARLINK-3958,1 52535U 22051C   23032.53477865 -.00000204  00000-0  52872-5 0  9991,2 52535  53.2151 171.5598 0001431 105.6708 254.4442 15.08839592 40527,6917.882,95.438,540.737,538.757,0.0
52535.0,STARLINK-3958,PAYLOAD,2023-02-02 01:33:09,15.08794646,0.0001233,53.2151,169.1839,103.3398,256.7732,0.00047595,7.286e-05,0.0,0 STARLINK-3958,1 52535U 22051C   23033.06469475  .00007286  00000-0  47595-3 0  9998,2 52535  53.2151 169.1839 0001233 103.3398 256.7732 15.08794646 40671,6918.019,95.44,540.737,539.031,0.0
